LEMUR-2-PETERG          
1 42841U 17042S   26068.48235713  .00023240  00000+0  81076-3 0  9993
2 42841  97.3980 253.6596 0003700 341.6938  18.4169 15.29611459473171
STARLINK-33677          
1 63410U 25065M   26068.44750886  .00022185  00000+0  81328-3 0  9998
2 63410  43.0006 108.3747 0001974 254.2981 105.7653 15.27579841 52802
